{
  "norad_id": 53783,
  "name": "STARLINK-4536",
  "history": [
    {
      "epoch": "2026-03-28T13:03:11.134368Z",
      "apogee_km": 540.3946774449814,
      "perigee_km": 539.0775144075169,
      "latitude_deg": -8.791765579348986e-06,
      "longitude_deg": 167.63929299913497,
      "height_km": 540.6597132964681,
      "semi_major_axis_km": 6917.873095926248,
      "eccentricity": 9.52e-05,
      "inclination_deg": 53.2154,
      "raan_deg": 189.3985,
      "arg_perigee_deg": 92.399,
      "mean_anomaly_deg": 267.7111,
      "mean_motion_rev_day": 15.08842386
    },
    {
      "epoch": "2026-03-29T00:10:52.680288Z",
      "apogee_km": 540.6318291172493,
      "perigee_km": 538.8027484432969,
      "latitude_deg": -8.272407866767165e-07,
      "longitude_deg": -1.8225284827858959,
      "height_km": 540.6958332151495,
      "semi_major_axis_km": 6917.854288780273,
      "eccentricity": 0.0001322,
      "inclination_deg": 53.2164,
      "raan_deg": 187.3168,
      "arg_perigee_deg": 95.1997,
      "mean_anomaly_deg": 264.9146,
      "mean_motion_rev_day": 15.08848539
    },
    {
      "epoch": "2026-03-29T06:32:25.628640Z",
      "apogee_km": 540.7786699171993,
      "perigee_km": 538.656133829616,
      "latitude_deg": 2.6596712989189668e-06,
      "longitude_deg": -98.6592716614535,
      "height_km": 540.7734578537356,
      "semi_major_axis_km": 6917.854401873407,
      "eccentricity": 0.00015341,
      "inclination_deg": 53.2186,
      "raan_deg": 186.1285,
      "arg_perigee_deg": 98.6952,
      "mean_anomaly_deg": 261.4214,
      "mean_motion_rev_day": 15.08848502
    },
    {
      "epoch": "2026-03-30T12:44:45.585888Z",
      "apogee_km": 540.7018084786259,
      "perigee_km": 538.8011877926483,
      "latitude_deg": -6.4814821151312555e-06,
      "longitude_deg": 161.36766972563038,
      "height_km": 540.7216066041487,
      "semi_major_axis_km": 6917.888498135637,
      "eccentricity": 0.00013737,
      "inclination_deg": 53.2174,
      "raan_deg": 180.4791,
      "arg_perigee_deg": 94.4913,
      "mean_anomaly_deg": 265.6236,
      "mean_motion_rev_day": 15.08837347
    }
  ]
}